0 COSMOS 917 DEB
1 35505U 77047S   13281.60534926 -.00000779  00000-0  00000+0 0  5802
2 35505 067.2863 007.9380 5953358 075.4436 356.1094 02.01651032 52584
0 COSMOS 917 DEB
1 35505U 77047S   13289.04314455 -.00000553  00000-0  00000+0 0  5812
2 35505 067.2802 007.4336 5955000 075.2923 355.3842 02.01639899 52734
